[{"OBJECT_NAME":"STARLINK-31770","OBJECT_ID":"2024-080A","EPOCH":"2026-03-09T21:55:59.602656","MEAN_MOTION":15.27574324,"ECCENTRICITY":0.00013087,"INCLINATION":43.0045,"RA_OF_ASC_NODE":36.9282,"ARG_OF_PERICENTER":290.5705,"MEAN_ANOMALY":69.5007,"EPHEMERIS_TYPE":0,"CLASSIFICATION_TYPE":"U","NORAD_CAT_ID":59601,"ELEMENT_SET_NO":999,"REV_AT_EPOCH":10577,"BSTAR":5.6032741e-5,"MEAN_MOTION_DOT":1.28e-5,"MEAN_MOTION_DDOT":0},{"OBJECT_NAME":"KSLV-II R\/B","OBJECT_ID":"2023-072H","EPOCH":"2026-03-09T20:13:26.441760","MEAN_MOTION":15.33109439,"ECCENTRICITY":0.00241884,"INCLINATION":97.4991,"RA_OF_ASC_NODE":274.152,"ARG_OF_PERICENTER":318.2938,"MEAN_ANOMALY":41.646,"EPHEMERIS_TYPE":0,"CLASSIFICATION_TYPE":"U","NORAD_CAT_ID":56750,"ELEMENT_SET_NO":999,"REV_AT_EPOCH":15516,"BSTAR":0.00028309532,"MEAN_MOTION_DOT":9.057e-5,"MEAN_MOTION_DDOT":0}]
